STARLINK-35579          
1 66562U 25268F   25340.58335648 -.02000632  00000+0 -25272-1 0  9997
2 66562  42.9996 157.3166 0001324 259.3820 305.8275 15.62105813  3683
STARLINK-35437          
1 66563U 25268G   25340.58335648 -.02002363  00000+0 -25296-1 0  9997
2 66563  42.9997 157.3072 0001325 259.9504 309.0934 15.62106782  3681
STARLINK-35358          
1 66564U 25268H   25340.58335648 -.01997580  00000+0 -25229-1 0  9997
2 66564  42.9997 157.3025 0001402 259.2458 311.7146 15.62104140  3633
STARLINK-35893          
1 66565U 25268J   25340.58335648 -.02090255  00000+0 -26549-1 0  9998
2 66565  43.0000 157.2974 0001048 273.6039 299.3163 15.62132226  3685
STARLINK-35871          
1 66566U 25268K   25340.58335648 -.01998809  00000+0 -25245-1 0  9992
2 66566  43.0001 157.2926 0001451 259.7293 315.0649 15.62104823  3686
STARLINK-35825          
1 66567U 25268L   25340.58335648 -.02000492  00000+0 -25269-1 0  9992
2 66567  43.0000 157.2880 0001389 260.8347 315.8765 15.62106177  3689
STARLINK-35803          
1 66568U 25268M   25340.58335648 -.01997062  00000+0 -25221-1 0  9998
2 66568  42.9999 157.2829 0001409 256.5957 322.0311 15.62104987  3684
STARLINK-35835          
1 66569U 25268N   25340.58335648 -.01997276  00000+0 -25225-1 0  9990
2 66569  42.9998 157.2783 0001388 257.6896 322.8559 15.62104238  3684
STARLINK-35834          
1 66570U 25268P   25340.58335648 -.01997959  00000+0 -25235-1 0  9991
2 66570  43.0001 157.2727 0001396 260.0515 322.4131 15.62103939  3685
STARLINK-35836          
1 66571U 25268Q   25340.58335648 -.01999888  00000+0 -25260-1 0  9993
2 66571  42.9999 157.2681 0001385 258.7702 325.6098 15.62106091  3688
STARLINK-35870          
1 66572U 25268R   25340.58335648 -.01993795  00000+0 -25178-1 0  9993
2 66572  42.9996 157.2643 0001336 258.3682 327.9316 15.62101360  3685
STARLINK-35650          
1 66573U 25268S   25340.58335648 -.01995489  00000+0 -25198-1 0  9998
2 66573  42.9996 157.2583 0001479 260.6113 327.6015 15.62103954  3686
STARLINK-35812          
1 66574U 25268T   25340.58335648 -.02001505  00000+0 -25283-1 0  9992
2 66574  42.9997 157.2532 0001408 259.4073 330.7243 15.62106506  3689
STARLINK-35810          
1 66575U 25268U   25340.58335648 -.01999977  00000+0 -25259-1 0  9994
2 66575  42.9998 157.2486 0001514 258.1691 333.8752 15.62107609  3683
STARLINK-35814          
1 66576U 25268V   25340.58335648 -.01994852  00000+0 -25191-1 0  9997
2 66576  42.9998 157.2439 0001415 255.1686 338.7965 15.62103117  3683
STARLINK-35815          
1 66577U 25268W   25340.58335648 -.01996697  00000+0 -25216-1 0  9995
2 66577  42.9996 157.2392 0001490 256.4326 339.4495 15.62103909  3683
STARLINK-35743          
1 66578U 25268X   25340.58335648 -.01995989  00000+0 -25205-1 0  9997
2 66578  42.9996 157.2343 0001444 255.8923 341.9058 15.62104372  3683
STARLINK-35868          
1 66579U 25268Y   25340.58335648 -.01999201  00000+0 -25248-1 0  9996
2 66579  42.9997 157.2291 0001542 258.6294 341.0845 15.62106510  3689
STARLINK-35872          
1 66580U 25268Z   25340.58335648 -.01998914  00000+0 -25245-1 0  9995
2 66580  42.9999 157.2252 0001419 258.0130 343.6185 15.62106655  3681
STARLINK-35744          
1 66581U 25268AA  25340.58335648 -.01996533  00000+0 -25211-1 0  9994
2 66581  42.9998 157.2196 0001533 259.4380 344.1097 15.62105341  3631
STARLINK-35746          
1 66582U 25268AB  25340.58335648 -.01999438  00000+0 -25253-1 0  9998
2 66582  42.9993 157.2146 0001464 259.7665 345.7001 15.62106265  3687
STARLINK-35941          
1 66583U 25268AC  25340.58335648 -.01995918  00000+0 -25203-1 0  9993
2 66583  42.9993 157.2099 0001515 256.6938 350.6887 15.62104737  3680
STARLINK-35939          
1 66584U 25268AD  25340.58335648 -.01995566  00000+0 -25197-1 0  9995
2 66584  42.9993 157.2055 0001589 258.7349 350.5639 15.62104734  3684
STARLINK-35963          
1 66585U 25268AE  25340.58335648 -.01995477  00000+0 -25199-1 0  9999
2 66585  42.9995 157.2006 0001506 258.0582 353.1622 15.62102908  3686
TJS-21                  
1 66586U 25269A   25339.24566365  .00001125  00000+0 -17799-1 0  9997
2 66586  63.2734 163.1383 6805128 269.8052  18.6619  2.00559462   290
CZ-3B R/B               
1 66587U 25269B   25339.88612404  .00055981 -82846-6  17517-2 0  9997
2 66587  51.3669 171.2323 7520061 227.4915  38.5744  2.02575003   313
STARLINK-36076          
1 66588U 25270A   25340.58335648 -.01728176  00000+0 -16987-1 0  9990
2 66588  42.9990 229.0695 0001452 248.2727 158.1199 15.68359515  3415
STARLINK-35447          
1 66589U 25270B   25340.58335648 -.01901733  00000+0 -18415-1 0  9991
2 66589  42.9990 229.0599 0001663 260.2639 149.8513 15.68502016  3524
STARLINK-35429          
1 66590U 25270C   25340.58335648 -.01903691  00000+0 -18436-1 0  9991
2 66590  42.9990 229.0648 0001527 261.1270 147.0704 15.68503805  3520
STARLINK-36058          
1 66591U 25270D   25340.58335648 -.01898813  00000+0 -18385-1 0  9994
2 66591  42.9989 229.0551 0001634 261.9652 150.0677 15.68500388  3417
STARLINK-36066          
1 66592U 25270E   25340.58335648 -.01900644  00000+0 -18403-1 0  9992
2 66592  42.9991 229.0505 0001631 260.8897 153.0570 15.68503087  3319
STARLINK-36031          
1 66593U 25270F   25340.58335648 -.01895795  00000+0 -18351-1 0  9995
2 66593  42.9990 229.0457 0001741 262.1878 153.6751 15.68500630  3410
STARLINK-36032          
1 66594U 25270G   25340.58335648 -.01902830  00000+0 -18427-1 0  9999
2 66594  42.9991 229.0408 0001565 261.4892 156.2931 15.68503484  3150
STARLINK-35711          
1 66595U 25270H   25340.58335648 -.01905436  00000+0 -18454-1 0  9995
2 66595  42.9990 229.0356 0001685 262.2938 157.4063 15.68504419  3524
STARLINK-35811          
1 66596U 25270J   25340.58335648 -.01904871  00000+0 -18447-1 0  9990
2 66596  42.9989 229.0311 0001568 263.5543 158.0608 15.68505779  3522
STARLINK-35820          
1 66597U 25270K   25340.58335648 -.01898818  00000+0 -18385-1 0  9995
2 66597  42.9990 229.0261 0001604 262.3069 161.2289 15.68500105  3529
STARLINK-35981          
1 66598U 25270L   25340.58335648 -.01898840  00000+0 -18383-1 0  9999
2 66598  42.9990 229.0212 0001673 260.8863 164.5606 15.68503037  3253
STARLINK-35930          
1 66599U 25270M   25340.58335648 -.01900944  00000+0 -18406-1 0  9995
2 66599  42.9990 229.0170 0001651 262.7363 164.6313 15.68502285  3417
STARLINK-35980          
1 66600U 25270N   25340.58335648 -.01901833  00000+0 -18416-1 0  9997
2 66600  42.9990 229.0121 0001603 260.8874 168.3961 15.68503372  3316
STARLINK-35978          
1 66601U 25270P   25340.58335648 -.01877896  00000+0 -18175-1 0  9991
2 66601  42.9990 229.0071 0001722 261.0606 170.1663 15.68474923  3251
STARLINK-36050          
1 66602U 25270Q   25340.58335648 -.01899980  00000+0 -18397-1 0  9996
2 66602  42.9991 229.0022 0001656 261.5336 171.5862 15.68500986  3312
STARLINK-36048          
1 66603U 25270R   25340.58335648 -.01901577  00000+0 -18412-1 0  9991
2 66603  42.9989 228.9970 0001831 267.4609 167.5746 15.68502357  3313
STARLINK-35977          
1 66604U 25270S   25340.58335648 -.01900041  00000+0 -18395-1 0  9997
2 66604  42.9990 228.9923 0001718 263.0687 173.8810 15.68503149  3419
STARLINK-36052          
1 66605U 25270T   25340.58335648 -.01901004  00000+0 -18408-1 0  9993
2 66605  42.9989 228.9877 0001604 261.4434 177.4278 15.68501771  3419
STARLINK-36063          
1 66606U 25270U   25340.58335648 -.01898736  00000+0 -18383-1 0  9993
2 66606  42.9990 228.9780 0001669 262.2847 180.4173 15.68501825  3411
STARLINK-35993          
1 66607U 25270V   25340.58335648 -.01899622  00000+0 -18393-1 0  9990
2 66607  42.9990 228.9832 0001620 260.6436 180.1446 15.68500745  3312
STARLINK-36036          
1 66608U 25270W   25340.58335648 -.01897662  00000+0 -18371-1 0  9999
2 66608  42.9991 228.9736 0001662 260.9372 183.6815 15.68501311  3256
STARLINK-36034          
1 66609U 25270X   25340.58335648 -.01901760  00000+0 -18417-1 0  9996
2 66609  42.9990 228.9691 0001573 261.4725 185.0694 15.68500567  3258
STARLINK-35680          
1 66610U 25270Y   25340.58335648 -.01904722  00000+0 -18446-1 0  9991
2 66610  42.9990 228.9638 0001590 262.3443 186.1087 15.68505716  3526
STARLINK-35583          
1 66611U 25270Z   25340.58335648 -.01901451  00000+0 -18413-1 0  9992
2 66611  42.9990 228.9588 0001540 262.9865 187.3860 15.68502741  3527
STARLINK-36039          
1 66612U 25270AA  25340.58335648 -.01905146  00000+0 -18451-1 0  9990
2 66612  42.9989 228.9537 0001598 262.7217 189.5671 15.68504875  3414
STARLINK-36037          
1 66613U 25270AB  25340.58335648 -.01902304  00000+0 -18422-1 0  9992
2 66613  42.9990 228.9489 0001571 262.7487 191.4598 15.68501963  3418
STARLINK-36040          
1 66614U 25270AC  25340.58335648 -.01903238  00000+0 -18430-1 0  9999
2 66614  42.9990 228.9391 0001597 266.7471 191.2921 15.68504568  3250
STARLINK-35988          
1 66615U 25270AD  25340.58335648 -.01904089  00000+0 -18439-1 0  9994
2 66615  42.9990 228.9443 0001664 262.4083 193.7136 15.68504373  3255
STARLINK-35391          
1 66616U 25270AE  25340.58335648 -.01904805  00000+0 -18447-1 0  9990
2 66616  42.9991 228.9349 0001573 262.4645 197.4916 15.68505211  3524
STARLINK-35940          
1 66617U 25271A   25340.58335648  .00112508  00000+0  76468-3 0  9999
2 66617  53.1580 217.2848 0001588  88.0210 256.4714 15.74115378  3254
STARLINK-35970          
1 66618U 25271B   25340.58335648 -.00039718  00000+0 -26765-3 0  9998
2 66618  53.1580 217.1724 0000950  89.5731 308.1568 15.74233486  3256
STARLINK-35951          
1 66619U 25271C   25340.58335648  .00071839  00000+0  49156-3 0  9996
2 66619  53.1578 217.2680 0000542 105.5706 246.5724 15.74145198  3255
STARLINK-35936          
1 66620U 25271D   25340.58335648  .00092066  00000+0  62759-3 0  9997
2 66620  53.1582 217.2806 0001231  93.8758 252.5244 15.74132334  3256
